OPTICUBE 04             
1 41851U 16067D   19132.84584493 -.00000428  00000-0 -32104-4 0  9990
2 41851  97.9141 230.0179 0009600 140.8285 219.3632 14.96794255136409
AEROCUBE 8D             
1 41852U 16067E   19132.84627332 -.00000283  00000-0 -19465-4 0  9995
2 41852  97.9151 229.8435 0010408 141.5775 218.6189 14.96694271136385
AEROCUBE 8C             
1 41853U 16067F   19133.20260750  .00000409  00000-0  41179-4 0  9999
2 41853  97.9144 230.1428 0011030 142.7213 217.4776 14.96654972136436
PROMETHEUS 2-1          
1 41854U 16067G   19132.84086022 -.00000018  00000-0  37155-5 0  9994
2 41854  97.9161 229.8953 0011152 142.0326 218.1683 14.96865482136386
PROMETHEUS 2-3          
1 41855U 16067H   19132.84331767 -.00000082  00000-0 -18295-5 0  9990
2 41855  97.9162 229.9122 0011280 142.7488 217.4518 14.96869689136387
INS-1B                  
1 41954U 17008G   19132.72422218  .00001392  00000-0  60670-4 0  9991
2 41954  97.4023 198.2473 0007479 276.4278  83.6107 15.23849067124172
BGUSAT                  
1 41999U 17008BD  19132.89125273  .00002648  00000-0  10592-3 0  9991
2 41999  97.4089 200.6248 0006378 293.4835  66.5733 15.25958269123683
DIDO-2                  
1 42000U 17008BE  19133.43478796  .00001007  00000-0  44730-4 0  9997
2 42000  97.4035 199.4908 0006948 297.1717  62.8811 15.23828602123680
PEASSS                  
1 42015U 17008BV  19133.15871438  .00001231  00000-0  52566-4 0  9997
2 42015  97.4043 200.1177 0004932 307.9165  52.1626 15.24774298124185
AL-FARABI 1             
1 42016U 17008BW  19132.84444758  .00001631  00000-0  67473-4 0  9991
2 42016  97.4058 200.3051 0004755 308.5843  51.4969 15.25383383124283
NAYIF-1 (EO-88)         
1 42017U 17008BX  19133.16073996  .00001593  00000-0  65914-4 0  9995
2 42017  97.4053 200.6279 0004726 307.4060  52.6747 15.25416243124358
PHOENIX                 
1 42706U 98067LP  19128.42254485  .08245211  12410-4  57150-3 0  9990
2 42706  51.5998 109.6560 0003143 270.9046 228.4560 16.40380041113340
ALTAIR PATHFINDER       
1 42711U 98067LS  19133.53391417  .00035495  00000-0  20470-3 0  9997
2 42711  51.6340 116.9977 0004219  25.4966 334.6242 15.78304714113373
SHARC                   
1 42712U 98067LT  19123.64217769  .08981558  12375-4  84912-3 0  9997
2 42712  51.6192 152.4129 0003348 312.8737 146.7300 16.37776182112255
ZA-AEROSAT              
1 42713U 98067LU  19133.38323008  .00335908  61982-4  49496-3 0  9994
2 42713  51.6250  92.3235 0003553  83.6534 276.4882 16.04446195113683
NJUST-1                 
1 42722U 98067MB  19133.36133179  .00166449  21460-4  50131-3 0  9997
2 42722  51.6311 101.0723 0005599  68.6290  89.4426 15.91871677112637
NSIGHT                  
1 42726U 98067MF  19133.44538894  .00020793  00000-0  17374-3 0  9999
2 42726  51.6354 133.9346 0006336  37.7963 322.3478 15.69977122112124
BEEAGLESAT              
1 42736U 98067MR  19116.58349394  .05344197  12378-4  56382-3 0  9990
2 42736  51.6116 172.4218 0006034 335.7210 140.8917 16.36759636110007
UCLSAT                  
1 42765U 17036A   19133.45952686  .00001339  00000-0  60423-4 0  9998
2 42765  97.3541 192.2386 0011505   6.4173 353.7209 15.22655001104954
LITUANICASAT-2          
1 42768U 17036D   19132.91314541  .00002454  00000-0  10821-3 0  9998
2 42768  97.3574 191.2874 0014745 356.6185   3.4949 15.22645744104713
AALTO-1                 
1 42775U 17036L   19133.15728889  .00000846  00000-0  40818-4 0  9990
2 42775  97.3528 190.7754 0013737 355.8612   4.2508 15.21276093104656
URSA MAIOR              
1 42776U 17036M   19132.72653689  .00000926  00000-0  44251-4 0  9992
2 42776  97.3537 190.4903 0013597 357.5270   2.5896 15.21402428104590
COMPASS 2               
1 42777U 17036N   19133.39406519  .00001909  00000-0  84586-4 0  9992
2 42777  97.3573 192.2134 0012230 357.5613   2.5562 15.22772333104744
DIAMOND RED             
1 42783U 17036U   19133.16329534  .00001073  00000-0  49770-4 0  9993
2 42783  97.3543 191.5803 0012220   7.7442 352.3980 15.22122187104696
PEGASUS                 
1 42784U 17036V   19133.14928406  .00001187  00000-0  54304-4 0  9990
2 42784  97.3546 191.7681 0012097   7.4315 352.7098 15.22405417104700
DIAMOND GREEN           
1 42785U 17036W   19132.89916429  .00001100  00000-0  50965-4 0  9998
2 42785  97.3545 191.3448 0012180   9.3475 350.7985 15.22121903104728
DIAMOND BLUE            
1 42786U 17036X   19132.83245626  .00001085  00000-0  50317-4 0  9990
2 42786  97.3545 191.2782 0012043   9.9144 350.2327 15.22119928104714
NUDTSAT                 
1 42787U 17036Y   19132.90698467  .00001686  00000-0  73844-4 0  9991
2 42787  97.3577 192.1458 0013263   2.5084 357.6217 15.23321780104549
SUCHAI                  
1 42788U 17036Z   19132.83759898  .00001504  00000-0  67211-4 0  9990
2 42788  97.3550 191.7369 0011701   8.1911 351.9515 15.22803486104740
SKCUBE                  
1 42789U 17036AA  19132.91674679  .00001372  00000-0  61769-4 0  9998
2 42789  97.3546 191.7646 0011549   8.0819 352.0601 15.22710345104671
VZLUSAT-1               
1 42790U 17036AB  19132.89382432  .00002056  00000-0  89429-4 0  9993
2 42790  97.3558 192.1386 0011048   8.1110 352.0304 15.23327359104693
ROBUSTA-1B              
1 42792U 17036AD  19132.78586255  .00001394  00000-0  62395-4 0  9999
2 42792  97.3547 191.7743 0011176   9.6508 350.4941 15.22872937104677
CICERO 6                
1 42793U 17036AE  19133.16499291  .00000960  00000-0  44360-4 0  9996
2 42793  97.3531 191.9619 0010455  10.4897 349.6556 15.22504482104797
D-SAT                   
1 42794U 17036AF  19133.16699194  .00000080  00000-0  12666-4 0  9998
2 42794  97.5432 179.4687 0125034 263.2968  95.4008 14.91073753102897
TOKI                    
1 42820U 98067MU  19123.10626650  .20777511  12651-4  37226-3 0  9990
2 42820  51.6051 142.7539 0005305 301.2009  59.2873 16.47402492104441
MAZAALAI (NUMSAT-1)     
1 42822U 98067MW  19131.43194823  .10190864  12355-4  76666-3 0  9990
2 42822  51.6054 100.7046 0005179 246.5694 204.7401 16.39672911105736
BRAC ONNESHA            
1 42823U 98067MX  19126.46325411  .10871672  12483-4  53364-3 0  9992
2 42823  51.6136 126.1830 0002073 268.7751  91.3478 16.43067843104944
NIGERIAEDUSAT-1         
1 42824U 98067MY  19133.12526632  .12220275  12529-4  51637-3 0  9993
2 42824  51.6091  92.5367 0003545 299.4874 174.6355 16.43636834105973
CORVUS BC2              
1 42846U 17042X   19133.19452790  .00000318  00000-0  36701-4 0  9995
2 42846  97.5698  28.6438 0009779 167.7613 192.3846 14.91958640 99574
CORVUS BC1              
1 42847U 17042Y   19132.94902150  .00000024  00000-0  75988-5 0  9993
2 42847  97.5698  28.5083 0009419 167.4462 192.6994 14.92058429 99530
MIRATA                  
1 43015U 17073C   19133.35208086  .00000836  00000-0  71570-4 0  9991
2 43015  97.7198  55.9801 0254086 276.3000  80.9331 14.78920827 79926
MAKERSAT 0              
1 43016U 17073D   19132.75137303  .00000590  00000-0  52169-4 0  9998
2 43016  97.7229  55.5987 0256207 278.5525  78.6733 14.78691661 79837
ASTERIA                 
1 43020U 98067NH  19133.44887896  .00013983  00000-0  12228-3 0  9992
2 43020  51.6413 144.6376 0003057  12.7090 347.3984 15.69228704 84167
DELLINGR (RBLE)         
1 43021U 98067NJ  19133.45528052  .00008468  00000-0  98885-4 0  9996
2 43021  51.6372 155.0829 0002600 347.9318  12.1614 15.62546984 84028
AEROCUBE 7B (OCSD B)    
1 43042U 17071F   19133.19013005  .00003912  00000-0  10303-3 0  9990
2 43042  51.6377 231.3476 0004906  26.7148 333.4089 15.40994320 80451
AEROCUBE 7C (OCSD C)    
1 43043U 17071G   19132.73623120  .00004213  00000-0  11028-3 0  9995
2 43043  51.6377 233.5801 0005081  27.9117 332.2140 15.40976612 80350
CHEFSAT                 
1 43044U 17071H   19132.78802904  .00007673  00000-0  17757-3 0  9998
2 43044  51.6380 228.7789 0004873  24.9744 335.1477 15.43465673 80423
ASGARDIA 1              
1 43049U 17071N   19133.53424152  .00004153  00000-0  10835-3 0  9992
2 43049  51.6385 229.1841 0002694  50.1520 309.9702 15.41112577 80474
ISARA                   
1 43050U 17071P   19132.79183645  .00007480  00000-0  17619-3 0  9993
2 43050  51.6374 229.5174 0002460  41.4146 318.7026 15.42975587 80415
PROPCUBE 2 (FAUNA)      
1 43052U 17071R   19133.22212707  .00004471  00000-0  11494-3 0  9998
2 43052  51.6382 230.1173 0002594  46.1841 313.9358 15.41371748 80430
CORVUS BC3              
1 43118U 18004H   19132.74249014  .00000857  00000-0  39697-4 0  9995
2 43118  97.4889 200.2167 0011174  30.1078 330.0799 15.22782542 73857
MICROMAS-2A             
1 43131U 18004W   19133.17278241  .00002261  00000-0  96291-4 0  9996
2 43131  97.4909 201.2518 0010105  31.8408 328.3438 15.23985226 73950
CICERO 7                
1 43143U 18004AJ  19133.19965190  .00001933  00000-0  82425-4 0  9996
2 43143  97.4897 201.4913 0008570  42.1412 318.0482 15.24141018 73974
GOMX-4B                 
1 43196U 18015E   19133.52432071  .00000967  00000-0  42753-4 0  9996
2 43196  97.3843 261.5884 0020583  74.8668 285.4846 15.23911150 70833
GOMX-4A                 
1 43197U 18015F   19133.51961257  .00000836  00000-0  37283-4 0  9996
2 43197  97.3859 261.6055 0020958  75.7590 346.9396 15.23998936 70843
1KUNS-PF                
1 43466U 98067NP  19133.46635576  .00016850  00000-0  17372-3 0  9995
2 43466  51.6364 158.1386 0002119  14.3767 345.7288 15.64944323 57249
UBAKUSAT                
1 43467U 98067NQ  19133.33892098  .00011050  00000-0  12964-3 0  9995
2 43467  51.6364 161.7832 0002393 321.0812  39.0009 15.62051509 57190
BATSU-CS1 (IRAZU)       
1 43468U 98067NR  19133.19677954  .00025403  00000-0  23577-3 0  9991
2 43468  51.6357 157.0723 0002517  16.4005 343.7072 15.67280952157228
CUBERRT                 
1 43546U 98067NU  19133.21557470  .00006582  00000-0  76384-4 0  9993
2 43546  51.6371 163.9548 0006283   1.6420 358.4594 15.63156954 47289
